CHAMRAN-1               
1 61072U 24165B   26068.91010681  .00007263  00000+0  44320-3 0  9995
2 61072  64.0789   8.4365 0045019 310.8781  48.8437 15.10235792 81665
TOMORROW-S6             
1 63225U 25052R   26068.69470832  .00005362  00000+0  24125-3 0  9995
2 63225  97.4118 323.1250 0006823 114.9559 245.2387 15.21501626 54716
